street_address,city,region,postal_code
162 Fleet St,National Harbor,MD,20745
14402 Baltimore Ave Unit 1,Laurel,MD,20707
7939 New Hampshire Ave,Langley Park,MD,20783
Clinton Park,Clinton,MD,20735
5707 Riverdale Rd,Riverdale Park,MD,20737
15916 Crain Hwy,Brandywine,MD,20613
3101 Donnell Dr,Forestville,MD,20747
12000 Cherry Hill Rd,Calverton,MD,20904
6920 Laurel Bowie Rd,Bowie,MD,20715
20 Audrey Ln,Glassmanor,MD,20745
9139 Riggs Rd,Adelphi,MD,20783
6130 Baltimore Ave,Riverdale Park,MD,20737
4302 Saint Barnabas Rd Ste B,Marlow Heights,MD,20748
600 Washington Blvd S,Laurel,MD,20707
10515 Greenbelt Rd,Seabrook,MD,20706
3300 Crain Hwy,Bowie,MD,20716
7025 Berry Rd,Accokeek,MD,20607
10500 Campus Way S,Kettering,MD,20774
13929 Baltimore Ave Ste 4,South Laurel,MD,20707
13202 Steeplechase Dr,Bowie,MD,20715
6498 Landover Rd,Landover,MD,20785
121 Centerway,Greenbelt,MD,20770
3130 Queens Chapel Rd,Chillum,MD,20782
15501 Annapolis Rd Ste 400,Bowie,MD,20715
9701 Apollo Dr Ste 400,Lake Arbor,MD,20774
4731 Silver Hill Rd,Suitland,MD,20746
3830A 34th St,Mount Rainier,MD,20712
8201 Annapolis Rd,New Carrollton,MD,20784
9001 Woody Ter,Clinton,MD,20735
7501 Baltimore Ave,College Park,MD,20740
2204 N Rolling Rd,Woodlawn,MD,21244
5700 Crain Hwy,Croom,MD,20772
9901 Rhode Island Ave,College Park,MD,20740
6498 Landover Rd,Landover,MD,20785
9900 Washington Blvd N Ste G,North Laurel,MD,20723
990 E Swan Creek Rd,Fort Washington,MD,20744
6200 Central Ave,Seat Pleasant,MD,20743
1264 Benning Rd,Coral Hills,MD,20743
9705 Fort Meade Rd,Laurel,MD,20707
5910 Greenbelt Rd,Greenbelt,MD,20770
7074 Allentown Rd,Camp Springs,MD,20748
7600 Crain Hwy,Marlton,MD,20772
Padgetts Cor,Temple Hills,MD,20748
8859 Branch Ave,Clinton,MD,20735
5702 Balt Natnl Pike,Woodlawn,MD,21228
3714 Branch Ave,Silver Hill,MD,20748
9131 Piscataway Rd Ste 260,Clinton,MD,20735
5741 Silver Hill Rd,District Heights,MD,20747
4000 Mitchellville Rd Ste B322,Bowie,MD,20716
3501 East West Hwy,Hyattsville,MD,20782
9507 Livingston Rd,Fort Washington,MD,20744
5741 Silver Hill Rd,District Heights,MD,20747
14999 Health Center Dr Ste 201,Bowie,MD,20716
12120 Plum Orchard Dr Ste G,Calverton,MD,20904
15419 Excelsior Dr,Bowie,MD,20716
5624 Baltimore National Pike,Woodlawn,MD,21228
10214 New Hampshire Ave,Hillandale,MD,20903
600 Washington Blvd S,Laurel,MD,20707
6221 Oxon Hill Rd,Oxon Hill,MD,20745
6163 Oxon Hill Rd,Oxon Hill,MD,20745
7936 Johnson Ave,Glenarden,MD,20706
721 723 Bridge St,Laurel,MD,20707
6100 Greenbelt Rd,Greenbelt,MD,20770
10820 Rhode Island Ave Ste F,Beltsville,MD,20705
10501 Greenbelt Rd,Seabrook,MD,20706
2204 N Rolling Rd,Woodlawn,MD,21244
4600 Mitchellville Rd,Bowie,MD,20716
6003 66th Ave,East Riverdale,MD,20737
12240 Kiln Ct,Beltsville,MD,20705
10692 Campus Way S,Kettering,MD,20774
3521 East West Hwy,Hyattsville,MD,20782
5922 Martin Luther King Jr Hwy,Seat Pleasant,MD,20743
3110 Gracefield Rd,Calverton,MD,20904
15100 Baltimore Ave,Laurel,MD,20707
3605 East West Hwy,Hyattsville,MD,20782
12410 Fairwood Pkwy,Fairwood,MD,20720
8745 Branch Ave,Clinton,MD,20735
15431 Excelsior Dr Bowie Town Center,Bowie,MD,20716
7595 Greenbelt Rd,Greenbelt,MD,20770
9139 Riggs Rd,Adelphi,MD,20783
7025 Berry Rd,Accokeek,MD,20607
5210 Indian Head Hwy Ste 1RR,Glassmanor,MD,20745
Great Eastern Plz,Hyattsville,MD,20743
3500 East West Hwy Ste 1200,Hyattsville,MD,20782
9001 Woody Ter,Clinton,MD,20735
10831 Lanham Severn Rd,Glenn Dale,MD,20769
10456 Baltimore Ave,Beltsville,MD,20705
9810 Apollo Dr,Lake Arbor,MD,20774
7005 Security Blvd,Woodlawn,MD,21244
1910 Crain Hwy,Bowie,MD,20716
5686 Silver Hill Rd,District Heights,MD,20747
4840 Marlboro Pike,Coral Hills,MD,20743
12701 Laurel Bowie Rd,South Laurel,MD,20708
4201 Northview Dr Ste 104,Bowie,MD,20716
6516 Landover Rd,Cheverly,MD,20785
12701 Laurel Bowie Rd,South Laurel,MD,20708
3500 Crain Hwy,Bowie,MD,20716
9810 Apollo Dr,Lake Arbor,MD,20774
9203 Oxon Hill Rd,Fort Washington,MD,20744
12764 Old Fort Rd,Fort Washington,MD,20744
7069 Allentown Rd,Camp Springs,MD,20748
6210 Annapolis Rd,Woodlawn,MD,20784
10113 New Hampshire Ave,Hillandale,MD,20903
509 Main St Ste B,Laurel,MD,20707
11100 Baltimore Ave,Beltsville,MD,20705
6622 Security Blvd,Woodlawn,MD,21207
5100 Brown Station Rd,Marlboro Village,MD,20772
15990 Annapolis Rd,Bowie,MD,20715
9530 Crain Hwy,Marlton,MD,20772
6309 New Hampshire Ave,Chillum,MD,20912
5500 Silver Hill Rd,Suitland,MD,20747
15520 Annapolis Rd,Bowie,MD,20715
15990 Annapolis Rd,Bowie,MD,20715
10401 Martin Luther King Jr Hwy,Mitchellville,MD,20720
5621 Sargent Rd,Chillum,MD,20782
5510 Cherrywood Ln Ste B,Greenbelt,MD,20770
9009 Woodyard Rd,Clinton,MD,20735
8601 Martin Luther King Jr Hwy,Lanham,MD,20706
2015 Lord Baltimore Dr,Woodlawn,MD,21244
9801 Greenbelt Rd Ste 207,Seabrook,MD,20706
7607 Greenbelt Rd,Greenbelt,MD,20770
10456 Baltimore Ave,Beltsville,MD,20705
6235 Oxon Hill Rd,Oxon Hill,MD,20745
5814 Baltimore Ave,Hyattsville,MD,20781
6196 Oxon Hill Rd Ste 130,Oxon Hill,MD,20745
6001 High Bridge Rd,Bowie,MD,20720
9131 Piscataway Rd Ste 670,Clinton,MD,20735
10480 Campus Way S,Kettering,MD,20774
9270 All Saints Rd,North Laurel,MD,20723
3611 Bladensburg Rd,Colmar Manor,MD,20722
3611 Branch Ave,Hillcrest Heights,MD,20748
6000 Greenbelt Rd,Greenbelt,MD,20770
7012 Marlboro Pike,Forestville,MD,20747
3415 Hamilton St,Hyattsville,MD,20782
7008 Marlboro Pike,Forestville,MD,20747
9580 Livingston Rd,Fort Washington,MD,20744
8319 Baltimore Ave,College Park,MD,20740
15789 Livingston Rd Unit 108,Accokeek,MD,20607
7001 Johnnycake Rd Ste 100,Woodlawn,MD,21244
7217 Hanover Pkwy,Greenbelt,MD,20770
12028 Cherry Hill Rd,Calverton,MD,20904
6495 New Hampshire Ave Ste 130,Chillum,MD,20783
8981 Woodyard Rd,Clinton,MD,20735
6104 Old Silver Hill Rd,District Heights,MD,20747
4101 Northview Dr,Bowie,MD,20716
13320 Laurel Bowie Rd,South Laurel,MD,20708
12130 Central Ave,Mitchellville,MD,20721
8785 Branch Ave,Clinton,MD,20735
7401 Annapolis Rd,Landover Hills,MD,20784
7008 Marlboro Pike,Forestville,MD,20747
1436 Addison Rd S,Walker Mill,MD,20743
9332 Annapolis Rd Ste 211,Lanham,MD,20706
9530 Crain Hwy,Marlton,MD,20772
28 Watkins Park Dr,Kettering,MD,20774
6130 Baltimore Ave,Riverdale Park,MD,20737
3702 East West Hwy,Hyattsville,MD,20782
6622 Security Blvd,Woodlawn,MD,21207
12100 Annapolis Rd Unit 2,Glenn Dale,MD,20769
7546 Annapolis Rd,Woodlawn,MD,20784
16006 Crain Hwy,Brandywine,MD,20613
11729 Beltsville Dr/Calverton S/C,Calverton,MD,20705
9420 Lanham Severn Rd,Seabrook,MD,20706
4311 Saint Barnabas Rd,Marlow Heights,MD,20748
15922 Crain Hwy,Brandywine,MD,20613
9250 Washington Blvd N,North Laurel,MD,20723
7300 Baltimore Ave,College Park,MD,20740
667 Main St,Laurel,MD,20707
4600 Forbes Blvd Ste 1,Lanham,MD,20706
5870 Silver Hill Rd,District Heights,MD,20747
3415 Hamilton St,Hyattsville,MD,20782
4701 Melbourne Pl,College Park,MD,20740
8201 Oxon Hill Rd,Fort Washington,MD,20744
5608 Saint Barnabas Rd Ste 120,Marlow Heights,MD,20745
5815 Eastern Ave,West Hyattsville,MD,20782
5831 Allentown Rd,Camp Springs,MD,20746
7050 Allentown Rd,Camp Springs,MD,20748
1009 Fairlawn Ave,Laurel,MD,20707
7605 Crain Hwy,Queensland,MD,20772
5403A Annapolis Rd,Bladensburg,MD,20710
7041 Martin Luther King Jr Hwy,Landover,MD,20785
6901 Security Blvd,Woodlawn,MD,21244
8313 Annapolis Rd,New Carrollton,MD,20784
4901 Indian Head Hwy,Glassmanor,MD,20745
5403A Annapolis Rd,Bladensburg,MD,20710
11906 Livingston Rd,Fort Washington,MD,20744
